# From MPEC 2023-QF0
C/2020 F2 (ATLAS),h,07/14.6162/2022,163.5889,250.2949,48.3185,1.005289,8.816258,2000,4.5,4.0
# From MPEC 2021-O56
C/2020 F3 (NEOWISE),e,129.1439,61.0895,37.3764,364.5069,0.0001416,0.99918849,0.0000,07/03.8093/2020,2000,g  7.5,5.2
# From MPEC 2023-QF0
C/2020 F5 (MASTER),e,52.2047,350.4989,310.6825,174.7050,0.0004268,0.97524234,0.0000,03/17.3866/2021,2000,g  6.5,3.2
# From MPEC 2020-L06
C/2020 F6 (PANSTARRS),e,174.5830,207.9063,344.5258,394.6542,0.0001257,0.99112120,0.0000,04/11.6583/2020,2000,g 14.5,2.8
# From MPEC 2023-J95
C/2020 F7 (Lemmon),e,93.9524,321.8651,227.9475,568.9048,0.0000726,0.99062727,0.0000,11/13.6731/2021,2000,g  7.0,4.0
# From MPEC 2023-J29
C/2020 F8 (SWAN),h,05/27.1897/2020,110.6162,259.8713,68.0801,1.000182,0.429539,2000,10.0,4.0
# From MPEC 2020-L06
P/2020 G1 (Pimentel),e,18.5149,240.1340,207.5873,3.608140,0.1438067,0.86048466,181.8059,09/03.0/2023,2000,g 17.0,4.0
# From MPEC 2022-YB4
C/2020 H2 (Pruyne),e,124.8871,277.6674,26.6558,188.5483,0.0003807,0.99559383,0.0000,04/27.8243/2020,2000,g 14.0,3.2
# From MPEC 2020-HM1
C/2020 H3 (Wierzchos),p,06/05.7162/2020,62.5292,30.4456,2.300288,270.6227,2000,13.5,4.0
# From MPEC 2020-L06
C/2020 H4 (Leonard),e,84.4944,307.6197,117.5401,47.83060,0.0029795,0.98067560,0.0000,08/29.6541/2020,2000,g 15.0,3.2
# From MPEC 2023-N01
C/2020 H5 (Robinson),e,70.2569,210.6278,326.3250,4024,0.0000039,0.99767833,0.0000,12/10.5712/2020,2000,g  5.0,4.0
# From MPEC 2023-QF0
C/2020 H6 (ATLAS),e,79.9778,213.7212,20.2897,5956,0.0000021,0.99921068,0.0000,09/30.5575/2021,2000,g  8.0,3.2
# From MPEC 2020-KB7
C/2020 H7 (Lemmon),e,135.9235,323.5194,82.6780,1405,0.0000187,0.99685380,0.0000,06/02.9510/2020,2000,g 11.0,4.0
# From MPEC 2021-N06
C/2020 H8 (PANSTARRS),e,99.6955,68.4326,128.9301,598.9870,0.0000672,0.99219670,0.0000,06/04.5256/2020,2000,g 10.5,4.0
# From MPEC 2022-ED3
A/2020 H9,e,137.8797,213.1853,312.8159,369.6766,0.0001387,0.99304176,0.0000,12/21.7410/2019,2000,g 18.0,2.0
# From MPEC 2023-HN7
C/2020 H11 (PANSTARRS-Lemmon),h,09/14.9453/2020,151.3979,303.0387,91.4607,1.002116,7.626548,2000,8.5,4.0
# From MPEC 2023-KD6
C/2020 J1 (SONEAR),h,04/18.6198/2021,142.3058,226.6090,341.7303,1.000721,3.352356,2000,8.5,3.2
# From MPEC 2023-QF0
C/2020 K1 (PANSTARRS),e,89.6724,94.3575,213.9864,49345,0.0000001,0.99993772,0.0000,05/09.0913/2023,2000,g  5.5,4.0
# From MPEC 2021-N06
C/2020 K2 (PANSTARRS),h,08/06.3580/2020,91.0231,288.4032,67.3524,1.003828,8.880055,2000,10.8,4.0
# From MPEC 2020-KF9
C/2020 K3 (Leonard),p,06/01.0032/2020,129.0152,64.4924,1.583069,28.3546,2000,14.5,4.0
# From MPEC 2020-L06
C/2020 K4 (PANSTARRS),e,125.5843,264.2158,308.8679,23.97059,0.0083982,0.92686517,10.7324,09/03.0/2023,2000,g 16.5,4.0
# From MPEC 2021-R75
C/2020 K5 (PANSTARRS),h,06/05.3912/2021,67.1041,86.1581,249.6173,1.001320,1.537157,2000,11.0,4.0
# From MPEC 2023-N01
C/2020 K6 (Rankin),h,09/15.8342/2021,103.6483,291.5616,44.3386,1.003668,5.868854,2000,8.0,4.0
# From MPEC 2023-A50
C/2020 K7 (PANSTARRS),e,32.0428,286.0881,358.2453,98.04072,0.0010153,0.93477838,1.4277,09/03.0/2023,2000,g  8.0,4.0
# From MPEC 2021-P47
C/2020 K8 (Catalina-ATLAS),h,09/14.9664/2020,31.4219,181.5247,259.9581,1.000200,0.471482,2000,15.0,3.2
# From MPEC 2021-BE3
P/2020 K9 (Lemmon-PANSTARRS),e,23.2068,166.2459,197.0893,4.203604,0.1143593,0.32117169,106.6466,09/03.0/2023,2000,g 12.5,4.0
# From MPEC 2023-C45
P/2020 M1 (PANSTARRS),e,8.5349,142.6120,72.6525,5.316962,0.0803912,0.47332087,108.3570,09/03.0/2023,2000,g 14.5,4.0
# From MPEC 2022-H30
C/2020 M3 (ATLAS),e,23.4795,71.1424,328.5876,27.13907,0.0069713,0.95324652,7.2645,09/03.0/2023,2000,g 14.5,4.0
# From MPEC 2023-N01
A/2020 M4,h,11/24.1265/2020,160.1237,348.6234,104.6227,1.001096,5.949778,2000,14.5,2.0
# From MPEC 2023-Q33
P/2020 MK4 (PANSTARRS),e,6.7939,0.7127,98.5438,6.210446,0.0636825,0.01235181,270.6507,09/03.0/2023,2000,g  8.0,4.0
# From MPEC 2023-FK0
C/2020 M5 (ATLAS),h,08/19.8598/2021,93.2155,352.0865,126.2914,1.000373,3.002124,2000,9.0,4.0
# From MPEC 2022-GA9
C/2020 N1 (PANSTARRS),h,03/12.4291/2021,29.7344,279.9125,186.7641,1.000493,1.317980,2000,12.5,4.0
# From MPEC 2021-P47
C/2020 N2 (ATLAS),e,161.0326,257.1759,331.3171,104.6835,0.0009202,0.98288443,0.0000,08/24.2074/2020,2000,g 16.0,3.2
# From MPEC 2023-QF0
C/2020 O2 (Amaral),h,08/28.4146/2021,71.7616,256.7790,10.2945,1.001351,4.862256,2000,8.0,3.2
# From MPEC 2023-C45
P/2020 O3 (PANSTARRS),e,8.4445,266.8184,81.6034,4.647404,0.0983758,0.10297305,93.0885,09/03.0/2023,2000,g 12.0,4.0
# From MPEC 2021-BE3
C/2020 P1 (NEOWISE),h,10/20.5359/2020,45.1948,53.4797,8.8926,1.000334,0.340841,2000,14.0,3.2
# From MPEC 2023-O39
C/2020 P3 (ATLAS),h,04/21.5648/2021,61.8893,19.4657,82.2839,1.001886,6.812691,2000,6.0,4.0
# From MPEC 2022-PB4
C/2020 PV6 (PANSTARRS),e,128.2194,329.1488,71.3756,42.07269,0.0036116,0.94546284,2.5530,09/03.0/2023,2000,g 10.0,4.0
# From MPEC 2022-L66
C/2020 Q1 (Borisov),e,142.9500,52.3814,9.9704,61.06580,0.0020654,0.97840283,0.0000,08/14.4038/2020,2000,g 14.0,4.0
# From MPEC 2023-CD7
C/2020 Q2 (PANSTARRS),e,3.3359,179.8259,118.2781,10.63702,0.0284102,0.49129207,37.2999,09/03.0/2023,2000,g 12.0,3.2
# From MPEC 2022-X67
C/2020 R2 (PANSTARRS),e,53.2282,195.0933,211.8098,414.7739,0.0001167,0.98868429,0.0000,02/25.0111/2022,2000,g  9.0,4.0
# From MPEC 2022-K19
C/2020 R4 (ATLAS),e,164.4465,323.2697,46.6680,99.77851,0.0009889,0.98971608,0.0000,03/02.2502/2021,2000,g 13.5,4.0
# From MPEC 2023-C45
P/2020 R5 (PANSTARRS),e,11.4434,272.9631,82.6618,4.988500,0.0884604,0.31434778,105.4016,09/03.0/2023,2000,g  9.5,6.0
# From MPEC 2021-Y10
C/2020 R6 (Rankin),e,82.8145,12.1795,271.9943,309.2620,0.0001812,0.98986266,0.0000,09/08.2209/2019,2000,g 11.0,4.0
# From MPEC 2023-QF0
C/2020 R7 (ATLAS),h,09/16.2527/2022,114.8990,268.2883,347.8420,1.000264,2.955935,2000,7.0,3.2
# From MPEC 2021-BE3
P/2020 S1 (PANSTARRS),e,13.7260,129.4598,255.0600,5.994798,0.0671494,0.50771972,64.3543,09/03.0/2023,2000,g 14.0,4.0
# From MPEC 2022-ST7
C/2020 S2 (PANSTARRS),e,22.4046,197.6623,202.3600,10.22828,0.0301301,0.82818140,29.6700,09/03.0/2023,2000,g 17.0,4.0
# From MPEC 2022-C56
C/2020 S3 (Erasmus),e,20.0170,222.5987,350.0851,149.5549,0.0005389,0.99735162,0.0000,12/11.8600/2020,2000,g 13.5,3.2
# From MPEC 2023-O39
C/2020 S4 (PANSTARRS),h,02/09.2383/2023,20.5682,117.7169,20.9934,1.001491,3.369714,2000,8.5,3.2
# From MPEC 2021-BE3
P/2020 S5 (PANSTARRS),e,12.3452,315.9948,53.2546,4.054965,0.1207045,0.33837635,135.1696,09/03.0/2023,2000,g 14.5,4.0
# From MPEC 2021-BE3
P/2020 S7 (PANSTARRS),e,16.0847,328.0308,40.6178,5.031873,0.0873192,0.41058621,88.9086,09/03.0/2023,2000,g 14.5,4.0
# From MPEC 2021-P47
C/2020 S8 (Lemmon),e,108.5273,24.0695,160.2540,258.9075,0.0002366,0.99088281,0.0000,04/10.7866/2021,2000,g 12.5,4.0
# From MPEC 2022-ST7
C/2020 T2 (Palomar),e,27.8550,82.9646,150.5144,296.6432,0.0001929,0.99306418,0.0000,07/10.8832/2021,2000,g 11.0,3.2
# From MPEC 2021-N06
P/2020 T3 (PANSTARRS),e,7.3000,73.9859,357.0439,3.516800,0.1494454,0.59223215,142.7251,09/03.0/2023,2000,g 18.0,3.2
# From MPEC 2021-N06
C/2020 T4 (PANSTARRS),h,07/05.3998/2021,83.8475,50.6168,79.6030,1.000327,2.191002,2000,13.0,3.2
# From MPEC 2021-BE3
C/2020 T5 (Lemmon),e,66.5516,237.8350,90.3456,723.6061,0.0000506,0.99738509,0.0000,10/09.1749/2020,2000,g 16.0,4.0
# From MPEC 2021-N06
P/2020 U2 (PANSTARRS),e,6.4190,342.8742,84.6599,3.777943,0.1342211,0.51124681,131.6393,09/03.0/2023,2000,g 18.0,4.0
# From MPEC 2021-W31
C/2020 U3 (Rankin),e,30.1532,282.6254,124.3727,66.76909,0.0018065,0.96588654,1.6959,09/03.0/2023,2000,g 15.0,4.0
# From MPEC 2023-QF0
C/2020 U4 (PANSTARRS),h,04/09.3144/2022,167.0190,120.3476,70.0429,1.000481,5.358434,2000,7.0,4.0
# From MPEC 2023-QF0
C/2020 U5 (PANSTARRS),e,97.2776,107.3233,75.4379,3618,0.0000045,0.99896175,0.0000,04/27.9705/2022,2000,g  8.0,4.0
# From MPEC 2023-QF0
C/2020 V2 (ZTF),h,05/08.5094/2023,131.6118,212.3711,162.4052,1.001196,2.227698,2000,4.9,4.0
# From MPEC 2023-D72
P/2020 V3 (PANSTARRS),e,23.0331,198.2519,249.4165,8.389140,0.0405628,0.25720772,37.9228,09/03.0/2023,2000,g  8.3,4.0
# From MPEC 2023-KD6
P/2020 V4 (Rankin),e,14.2446,203.4821,257.0531,9.372881,0.0343474,0.45069544,26.6704,09/03.0/2023,2000,g  9.0,4.0
# From MPEC 2021-BE3
P/2020 W1 (Rankin),e,10.7855,124.2728,265.2233,7.217121,0.0508344,0.26633933,63.1222,09/03.0/2023,2000,g 10.0,4.0
# From MPEC 2021-BE3
C/2020 W5 (Lemmon),h,11/30.1590/2020,88.6035,75.4601,24.5121,1.000898,3.365905,2000,15.0,4.0
# From MPEC 2023-QF0
P/2020 WJ5 (Lemmon),e,22.2925,177.8069,338.1183,6.015296,0.0668065,0.17141325,53.0864,09/03.0/2023,2000,g  8.5,4.0
# From MPEC 2021-P47
P/2020 X1 (ATLAS),e,31.6938,55.9846,323.4661,4.531677,0.1021682,0.36538184,116.3746,09/03.0/2023,2000,g 13.0,4.0
# From MPEC 2021-U31
C/2020 X2 (ATLAS),e,18.1847,105.4085,347.3921,16.46624,0.0147507,0.76758537,15.0570,09/03.0/2023,2000,g 10.6,4.0
# From MPEC 2021-S45
C/2020 X4 (Leonard),e,80.6104,161.8854,140.3126,40.61299,0.0038081,0.87139094,3.8887,09/03.0/2023,2000,g  9.0,4.0
# From MPEC 2023-QF0
C/2020 Y2 (ATLAS),e,101.2869,26.5173,266.3013,3175,0.0000055,0.99901148,0.0000,06/18.4347/2022,2000,g  6.5,4.0
# From MPEC 2021-R75
C/2020 Y3 (ATLAS),e,83.1022,191.4375,341.9303,141.4363,0.0005860,0.98589310,0.0000,12/03.2904/2020,2000,g 13.5,4.0
# From MPEC 2023-CD7
C/2021 A1 (Leonard),h,01/03.2921/2022,132.7247,255.9019,225.1243,1.000044,0.615968,2000,8.5,4.0
# From MPEC 2022-F14
C/2021 A2 (NEOWISE),e,106.9945,125.1795,338.7733,230.7457,0.0002812,0.99388060,0.0000,01/22.3614/2021,2000,g 13.5,4.0
# From MPEC 2022-ED3
C/2021 A4 (NEOWISE),e,111.5424,307.1100,204.7121,42.40701,0.0035690,0.97293472,0.0000,03/19.6694/2021,2000,g 16.0,4.0
# From MPEC 2021-BE3
P/2021 A5 (PANSTARRS),e,18.1825,328.7560,61.3830,3.047604,0.1852534,0.13994435,189.7080,09/03.0/2023,2000,g 15.0,4.0
# From MPEC 2023-O39
C/2021 A6 (PANSTARRS),e,75.5985,164.0711,351.6245,8783,0.0000012,0.99909762,0.0000,05/03.0980/2021,2000,g  7.0,4.0
# From MPEC 2022-M88
